company,address,city,state,zip,country,phone,fax
Lectus Quis Incorporated,135-7082 Convallis St.,Aurora,IL,33845,United States,(550) 689-7973,(770) 271-3639
Ante Ipsum Limited,Ap #561-5932 Ante. Ave,Detroit,MI,94481,United States,(342) 619-7378,(732) 737-0664
Ipsum Suspendisse Limited,Ap #379-4443 Placerat Street,Rockville,Maryland,92555,United States,(184) 957-1209,(375) 895-7395
Sed Et Libero Company,846-3713 Dolor Av.,College,AK,36924,United States,(963) 990-5700,(539) 190-9154
Lorem Limited,402 Non Rd.,Fresno,California,27288,United States,(151) 156-4563,(555) 202-0399
Erat Volutpat Nulla Corp.,861-9408 Elit Road,Sacramento,CA,05689,United States,(345) 690-1103,(232) 106-3782
Fringilla Cursus Purus Associates,599-3129 Fusce Street,Little Rock,AK,75768,United States,(743) 157-3689,(968) 223-2700
Vitae LLP,9570 Ornare Rd.,Lakewood,Colorado,38177,United States,(627) 426-0082,(419) 516-4912
Vitae Erat Associates,Ap #639-2170 Lorem Avenue,Bear,DE,73492,United States,(621) 872-8145,(737) 997-3781
Sit Amet Inc.,978-4713 Eu Ave,Portland,OR,87795,United States,(860) 433-0227,(606) 762-4963
Mi Duis Risus Foundation,Ap #195-9803 Mauris Rd.,Dallas,TX,94670,United States,(223) 984-5507,(994) 320-1980
Dolor Quam Elementum Ltd,9283 Elementum Street,Covington,Kentucky,56306,United States,(347) 326-2794,(704) 518-4121
Etiam Imperdiet Dictum Associates,Ap #529-3928 Nulla St.,Mesa,Arizona,62983,United States,(712) 282-5344,(857) 130-6047
Tempus Mauris Institute,2810 Tincidunt Av.,Evansville,IN,12693,United States,(380) 739-1095,(165) 532-6056
Nulla Donec Non Corporation,861-8042 Congue Rd.,Tucson,AZ,73097,United States,(181) 697-1513,(218) 817-9338
Ante Nunc Mauris Ltd,Ap #458-4006 Eget Road,Cleveland,Ohio,16600,United States,(595) 907-7885,(828) 797-4283
Eleifend Nunc Foundation,838-4107 Ante. Road,Independence,MO,15318,United States,(620) 102-9727,(245) 647-7037
Risus Donec Egestas Institute,6295 Etiam Rd.,Bellevue,NE,60045,United States,(163) 335-6911,(792) 173-6989
Sem Corporation,Ap #542-1812 Posuere Av.,Fort Collins,Colorado,77395,United States,(213) 483-5808,(597) 505-1055
Donec Tincidunt Company,101-7286 Fringilla Av.,Lafayette,LA,55514,United States,(657) 517-2677,(782) 343-0260
